GLOBALSTAR M035         
1 25851U 99037A   24318.54626926 -.00000067  00000+0 -12293-3 0  9991
2 25851  51.9912 175.8656 0013876 358.3557  32.7285 11.04535011 72433
GLOBALSTAR M032         
1 25852U 99037B   24318.52581348 -.00000175  00000+0 -34594-2 0  9995
2 25852  51.9988  15.9825 0010971 165.2636 194.8485 11.19057566110643
GLOBALSTAR M051         
1 25853U 99037C   24318.42313281 -.00000079  00000+0 -17070-3 0  9998
2 25853  51.9778 201.3959 0001118 133.1079 226.9825 11.42198997107739
GLOBALSTAR M030         
1 25854U 99037D   24318.35257858 -.00000119  00000+0 -92455-3 0  9993
2 25854  51.9909  21.3932 0003683  26.3805 333.7199 11.55101287125108
GLOBALSTAR M048         
1 25872U 99041A   24318.47137640 -.00000047  00000+0  63317-3 0  9991
2 25872  51.9330 127.9706 0013704 166.0794 206.7421 11.33851931100511
GLOBALSTAR M026         
1 25873U 99041B   24318.42352116 -.00000057  00000+0  27391-3 0  9997
2 25873  52.0017 296.3650 0001110 267.8087 263.5779 11.06827746124596
GLOBALSTAR M043         
1 25874U 99041C   24318.15670431 -.00000047  00000+0  63366-3 0  9992
2 25874  51.9398 227.7553 0012739 307.4328 202.0961 11.25687177 98544
GLOBALSTAR M028         
1 25875U 99041D   24318.43664016 -.00000050  00000+0  32724-3 0  9994
2 25875  51.9606 116.3883 0062636 323.4984  36.1616 12.50570227163185
